QIANFAN-132             
1 69078U 26104F   26156.14219461  .00000111  00000+0  47057-4 0  9990
2 69078  88.9863 342.9944 0004970 135.0590 225.1002 14.18146982  3371
QIANFAN-133             
1 69079U 26104G   26156.05643347  .00000125  00000+0  53030-4 0  9998
2 69079  88.9863 343.0001 0004502 145.1313 215.0172 14.19028821  3361
QIANFAN-134             
1 69080U 26104H   26156.19209316  .00000113  00000+0  47039-4 0  9998
2 69080  88.9863 342.9830 0005430 129.3536 230.8136 14.19324245  3389
QIANFAN-135             
1 69081U 26104J   26156.18742250  .00000113  00000+0  46914-4 0  9998
2 69081  88.9863 342.9825 0004347 156.6911 203.4477 14.19621719  3380
QIANFAN-136             
1 69082U 26104K   26156.04256088  .00000122  00000+0  50912-4 0  9996
2 69082  88.9862 342.9978 0004771 145.2470 214.9033 14.19914051  3361
QIANFAN-137             
1 69083U 26104L   26156.05829620  .00000122  00000+0  45758-4 0  9998
2 69083  88.9862 342.9814 0005469 138.6593 221.5015 14.25196371  3377
QIANFAN-138             
1 69084U 26104M   26156.10177685  .00000117  00000+0  47584-4 0  9995
2 69084  88.9863 342.9882 0004330 146.9897 213.1565 14.20801610  3370
QIANFAN-139             
1 69085U 26104N   26156.09715446  .00000132  00000+0  54244-4 0  9995
2 69085  88.9863 342.9875 0004263 137.1961 222.9562 14.21102373  3378
QIANFAN-140             
1 69086U 26104P   26156.09284383  .00000119  00000+0  47775-4 0  9993
2 69086  88.9863 342.9868 0004313 141.8271 218.3226 14.21391956  3376
QIANFAN-141             
1 69087U 26104Q   26156.15927582  .00000113  00000+0  45013-4 0  9993
2 69087  88.9863 342.9780 0003944 137.7219 222.4277 14.21633338  3381
QIANFAN-142             
1 69088U 26104R   26156.08402132  .00000118  00000+0  46877-4 0  9999
2 69088  88.9863 342.9853 0005176 129.7878 230.3769 14.21952163  3377
QIANFAN-143             
1 69089U 26104S   26156.14252986  .00000111  00000+0  42788-4 0  9997
2 69089  88.9863 342.9754 0004480 131.4351 228.7227 14.23170673  3382
QIANFAN-144             
1 69090U 26104T   26156.14787897  .00000118  00000+0  46160-4 0  9998
2 69090  88.9863 342.9762 0003859 122.7268 237.4296 14.22581467  3381
ZHUQUE-2E R/B           
1 69095U 26105A   26155.72138060  .00184916 -77209-6  45547-3 0  9998
2 69095  88.9715 195.9639 0463052 346.0313  12.8459 15.13573406  3266
2026-106A               
1 69097U 26106A   26155.63137572  .00009052  00000+0  54389-3 0  9996
2 69097  97.5095 237.9435 0013466 203.5034 156.5582 15.11037132  3085
2026-106B               
1 69098U 26106B   26155.63675397  .00006796  00000+0  42602-3 0  9996
2 69098  97.5082 237.9319 0014266 199.5733 160.4950 15.09575067  3086
2026-106C               
1 69099U 26106C   26155.63084001  .00008876  00000+0  53278-3 0  9995
2 69099  97.5097 237.9445 0013554 204.3760 155.6830 15.11076088  3082
2026-106D               
1 69100U 26106D   26155.62912235  .00008260  00000+0  49447-3 0  9996
2 69100  97.5062 237.9411 0013122 207.0214 153.0334 15.11202473  3085
2026-106E               
1 69101U 26106E   26155.62529263  .00009128  00000+0  54175-3 0  9990
2 69101  97.5073 237.9468 0015124 208.9127 151.1267 15.11460406  3083
DRAGON CRS-34           
1 69103U 26107A   26155.74133726  .00008168  00000+0  15298-3 0  9997
2 69103  51.6329   1.7083 0007031 132.5880 227.5703 15.49603626569349
QIANFAN-145             
1 69104U 26108A   26156.04636256  .00000334  00000+0  16206-3 0  9996
2 69104  89.0120  23.5727 0015418 151.7815 208.4211 14.16075707  2621
QIANFAN-146             
1 69105U 26108B   26156.05882647  .00000390  00000+0  16535-3 0  9992
2 69105  89.0124  23.5567 0015718 150.3594 209.8492 14.23383392  2637
QIANFAN-147             
1 69106U 26108C   26156.10484758  .00000331  00000+0  15720-3 0  9990
2 69106  89.0119  23.5628 0015410 148.6852 211.5258 14.17032514  2636
QIANFAN-148             
1 69107U 26108D   26156.09928355  .00000332  00000+0  15660-3 0  9999
2 69107  89.0120  23.5622 0015902 153.6968 206.5032 14.17401656  2634
QIANFAN-149             
1 69108U 26108E   26156.09711692  .00000342  00000+0  16046-3 0  9994
2 69108  89.0123  23.5623 0015553 152.9420 207.2582 14.17856202  2635
QIANFAN-150             
1 69109U 26108F   26156.15990418  .00000311  00000+0  14420-3 0  9997
2 69109  89.0123  23.5534 0015585 154.4950 205.7011 14.18304596  2643
QIANFAN-151             
1 69110U 26108G   26156.15493226  .00000333  00000+0  15329-3 0  9997
2 69110  89.0123  23.5525 0015699 153.0369 207.1639 14.18800201  2646
QIANFAN-152             
1 69111U 26108H   26156.15094360  .00000324  00000+0  14707-3 0  9993
2 69111  89.0121  23.5517 0014917 152.9435 207.2536 14.19417519  2644
QIANFAN-153             
1 69112U 26108J   26156.14613690  .00000319  00000+0  14408-3 0  9998
2 69112  89.0119  23.5507 0016122 152.9342 207.2692 14.19640685  2643
