OBJECT_NAME,OBJECT_ID,EPOCH,MEAN_MOTION,ECCENTRICITY,INCLINATION,RA_OF_ASC_NODE,ARG_OF_PERICENTER,MEAN_ANOMALY,EPHEMERIS_TYPE,CLASSIFICATION_TYPE,NORAD_CAT_ID,ELEMENT_SET_NO,REV_AT_EPOCH,BSTAR,MEAN_MOTION_DOT,MEAN_MOTION_DDOT
QIANFAN-132,2026-104F,2026-06-05T03:24:45.614304,14.18146982,.000497,88.9863,342.9944,135.0590,225.1002,0,U,69078,999,337,.47057E-4,.111E-5,0
QIANFAN-133,2026-104G,2026-06-05T01:21:15.851808,14.19028821,.0004502,88.9863,343.0001,145.1313,215.0172,0,U,69079,999,336,.5303E-4,.125E-5,0
QIANFAN-134,2026-104H,2026-06-05T04:36:36.849024,14.19324245,.000543,88.9863,342.9830,129.3536,230.8136,0,U,69080,999,338,.47039E-4,.113E-5,0
QIANFAN-135,2026-104J,2026-06-05T04:29:53.304000,14.19621719,.0004347,88.9863,342.9825,156.6911,203.4477,0,U,69081,999,338,.46914E-4,.113E-5,0
QIANFAN-136,2026-104K,2026-06-05T01:01:17.260032,14.19914051,.0004771,88.9862,342.9978,145.2470,214.9033,0,U,69082,999,336,.50912E-4,.122E-5,0
QIANFAN-137,2026-104L,2026-06-05T01:23:56.791680,14.25196371,.0005469,88.9862,342.9814,138.6593,221.5015,0,U,69083,999,337,.45758E-4,.122E-5,0
QIANFAN-138,2026-104M,2026-06-05T02:26:33.519840,14.20801610,.000433,88.9863,342.9882,146.9897,213.1565,0,U,69084,999,337,.47584E-4,.117E-5,0
QIANFAN-139,2026-104N,2026-06-05T02:19:54.145344,14.21102373,.0004263,88.9863,342.9875,137.1961,222.9562,0,U,69085,999,337,.54244E-4,.132E-5,0
QIANFAN-140,2026-104P,2026-06-05T02:13:41.706912,14.21391956,.0004313,88.9863,342.9868,141.8271,218.3226,0,U,69086,999,337,.47775E-4,.119E-5,0
QIANFAN-141,2026-104Q,2026-06-05T03:49:21.430848,14.21633338,.0003944,88.9863,342.9780,137.7219,222.4277,0,U,69087,999,338,.45013E-4,.113E-5,0
QIANFAN-142,2026-104R,2026-06-05T02:00:59.442048,14.21952163,.0005176,88.9863,342.9853,129.7878,230.3769,0,U,69088,999,337,.46877E-4,.118E-5,0
QIANFAN-143,2026-104S,2026-06-05T03:25:14.579904,14.23170673,.000448,88.9863,342.9754,131.4351,228.7227,0,U,69089,999,338,.42788E-4,.111E-5,0
QIANFAN-144,2026-104T,2026-06-05T03:32:56.743008,14.22581467,.0003859,88.9863,342.9762,122.7268,237.4296,0,U,69090,999,338,.4616E-4,.118E-5,0
ZHUQUE-2E R/B,2026-105A,2026-06-04T17:18:47.283840,15.13573406,.0463052,88.9715,195.9639,346.0313,12.8459,0,U,69095,999,326,.45546552E-3,.184916E-2,-.772087E-6
2026-106A,2026-106A,2026-06-04T15:09:10.862208,15.11037132,.0013466,97.5095,237.9435,203.5034,156.5582,0,U,69097,999,308,.543886E-3,.9052E-4,0
2026-106B,2026-106B,2026-06-04T15:16:55.543008,15.09575067,.00142668,97.5082,237.9319,199.5733,160.4950,0,U,69098,999,308,.42602016E-3,.6796E-4,0
2026-106C,2026-106C,2026-06-04T15:08:24.576864,15.11076088,.00135546,97.5097,237.9445,204.3760,155.6830,0,U,69099,999,308,.53277866E-3,.8876E-4,0
2026-106D,2026-106D,2026-06-04T15:05:56.171040,15.11202473,.00131226,97.5062,237.9411,207.0214,153.0334,0,U,69100,999,308,.49447297E-3,.826E-4,0
2026-106E,2026-106E,2026-06-04T15:00:25.283232,15.11460406,.0015124,97.5073,237.9468,208.9127,151.1267,0,U,69101,999,308,.54174936E-3,.9128E-4,0
DRAGON CRS-34,2026-107A,2026-06-04T17:47:31.539264,15.49603626,.00070311,51.6329,1.7083,132.5880,227.5703,0,U,69103,999,56934,.15298287E-3,.8168E-4,0
QIANFAN-145,2026-108A,2026-06-05T01:06:45.725184,14.16075707,.0015418,89.0120,23.5727,151.7815,208.4211,0,U,69104,999,262,.16206E-3,.334E-5,0
QIANFAN-146,2026-108B,2026-06-05T01:24:42.607008,14.23383392,.0015718,89.0124,23.5567,150.3594,209.8492,0,U,69105,999,263,.16535E-3,.39E-5,0
QIANFAN-147,2026-108C,2026-06-05T02:30:58.830912,14.17032514,.001541,89.0119,23.5628,148.6852,211.5258,0,U,69106,999,263,.1572E-3,.331E-5,0
QIANFAN-148,2026-108D,2026-06-05T02:22:58.098720,14.17401656,.0015902,89.0120,23.5622,153.6968,206.5032,0,U,69107,999,263,.1566E-3,.332E-5,0
QIANFAN-149,2026-108E,2026-06-05T02:19:50.901888,14.17856202,.0015553,89.0123,23.5623,152.9420,207.2582,0,U,69108,999,263,.16046E-3,.342E-5,0
QIANFAN-150,2026-108F,2026-06-05T03:50:15.721152,14.18304596,.0015585,89.0123,23.5534,154.4950,205.7011,0,U,69109,999,264,.1442E-3,.311E-5,0
QIANFAN-151,2026-108G,2026-06-05T03:43:06.147264,14.18800201,.0015699,89.0123,23.5525,153.0369,207.1639,0,U,69110,999,264,.15329E-3,.333E-5,0
QIANFAN-152,2026-108H,2026-06-05T03:37:21.527040,14.19417519,.0014917,89.0121,23.5517,152.9435,207.2536,0,U,69111,999,264,.14707E-3,.324E-5,0
QIANFAN-153,2026-108J,2026-06-05T03:30:26.228160,14.19640685,.0016122,89.0119,23.5507,152.9342,207.2692,0,U,69112,999,264,.14408E-3,.319E-5,0
